[{"OBJECT_NAME":"STARLINK-34130","OBJECT_ID":"2025-144N","EPOCH":"2026-03-09T15:12:29.053440","MEAN_MOTION":15.30200611,"ECCENTRICITY":8.66e-5,"INCLINATION":53.1599,"RA_OF_ASC_NODE":181.2756,"ARG_OF_PERICENTER":65.2672,"MEAN_ANOMALY":294.8419,"EPHEMERIS_TYPE":0,"CLASSIFICATION_TYPE":"U","NORAD_CAT_ID":64736,"ELEMENT_SET_NO":999,"REV_AT_EPOCH":3970,"BSTAR":0.0011817,"MEAN_MOTION_DOT":0.00034804,"MEAN_MOTION_DDOT":0},{"OBJECT_NAME":"OBJECT F","OBJECT_ID":"2021-022F","EPOCH":"2026-03-09T23:37:37.165152","MEAN_MOTION":15.31317672,"ECCENTRICITY":0.00120882,"INCLINATION":97.3982,"RA_OF_ASC_NODE":329.8375,"ARG_OF_PERICENTER":85.9268,"MEAN_ANOMALY":274.3355,"EPHEMERIS_TYPE":0,"CLASSIFICATION_TYPE":"U","NORAD_CAT_ID":47937,"ELEMENT_SET_NO":999,"REV_AT_EPOCH":27452,"BSTAR":0.00038690553,"MEAN_MOTION_DOT":0.00011656,"MEAN_MOTION_DDOT":0}]
